[{"name":"IRIDIUM 138","l1":"1 43071U 17083B   26183.59577774  .00000038  00000+0  65430-5 0  9998","l2":"2 43071  86.3993 315.2712 0002168  88.1495 271.9949 14.34217697446344","cat":"communications"},{"name":"IRIDIUM 116","l1":"1 43072U 17083C   26183.77337032  .00000060  00000+0  14363-4 0  9993","l2":"2 43072  86.3979 315.4848 0002286 101.0030 259.1423 14.34217880446408","cat":"communications"},{"name":"IRIDIUM 130","l1":"1 43073U 17083D   26183.74165654  .00000047  00000+0  97032-5 0  9990","l2":"2 43073  86.3988 315.7749 0002063  98.6858 261.4572 14.34217534446344","cat":"communications"},{"name":"IRIDIUM 151","l1":"1 43074U 17083E   26183.64651811  .00000068  00000+0  17393-4 0  9999","l2":"2 43074  86.3981 315.5959 0002236  93.9583 266.1868 14.34218004446358","cat":"communications"},{"name":"IRIDIUM 134","l1":"1 43075U 17083F   26183.75434104  .00000229  00000+0  74579-4 0  9994","l2":"2 43075  86.3982 315.5590 0002182  95.2816 264.8628 14.34218386446335","cat":"communications"},{"name":"IRIDIUM 137","l1":"1 43076U 17083G   26183.76702837  .00000043  00000+0  84323-5 0  9990","l2":"2 43076  86.3983 315.6467 0002601  99.0534 261.0956 14.34217791446406","cat":"communications"},{"name":"IRIDIUM 141","l1":"1 43077U 17083H   26183.41184236  .00000049  00000+0  10599-4 0  9999","l2":"2 43077  86.3978 315.6251 0002201  91.5678 268.5770 14.34217810446356","cat":"communications"},{"name":"IRIDIUM 153","l1":"1 43078U 17083J   26183.71286329  .00000079  00000+0  21294-4 0  9996","l2":"2 43078  86.3968 283.9799 0002153  91.9663 268.1779 14.34218070447506","cat":"communications"},{"name":"IRIDIUM 131","l1":"1 43079U 17083K   26183.74799975  .00000149  00000+0  45999-4 0  9992","l2":"2 43079  86.3986 315.6715 0002236  93.3320 266.8131 14.34218278446333","cat":"communications"},{"name":"IRIDIUM 144","l1":"1 43249U 18030A   26183.71920600  .00000141  00000+0  43207-4 0  9994","l2":"2 43249  86.3965 283.9060 0002269  98.1184 262.0269 14.34217660432368","cat":"communications"},{"name":"IRIDIUM 149","l1":"1 43250U 18030B   26183.72554922  .00000007  00000+0 -46864-5 0  9992","l2":"2 43250  86.3960 283.8700 0002160  93.6826 266.4616 14.34217483432387","cat":"communications"},{"name":"IRIDIUM 157","l1":"1 43251U 18030C   26183.74457662  .00000178  00000+0  56391-4 0  9991","l2":"2 43251  86.3964 283.9155 0002220  94.6283 265.5167 14.34218312432363","cat":"communications"},{"name":"IRIDIUM 140","l1":"1 43252U 18030D   26183.55429903  .00000098  00000+0  28049-4 0  9998","l2":"2 43252  86.3966 284.0078 0002199  95.2990 264.8457 14.34217831432391","cat":"communications"},{"name":"IRIDIUM 145","l1":"1 43253U 18030E   26183.75090861  .00000403  00000+0  13689-3 0  9991","l2":"2 43253  86.3964 283.8977 0002282 103.0282 257.1168 14.34216788432350","cat":"communications"},{"name":"IRIDIUM 146","l1":"1 43254U 18030F   26183.73189155  .00000208  00000+0  67235-4 0  9995","l2":"2 43254  86.3965 283.9178 0002275  98.5342 261.6112 14.34218537432367","cat":"communications"},{"name":"IRIDIUM 148","l1":"1 43255U 18030G   26183.70017917  .00000017  00000+0 -83603-6 0  9997","l2":"2 43255  86.3963 283.9746 0002248  95.3647 264.7806 14.34217511432398","cat":"communications"},{"name":"IRIDIUM 142","l1":"1 43256U 18030H   26183.73823404  .00000107  00000+0  31097-4 0  9994","l2":"2 43256  86.3963 283.8469 0002314  98.7791 261.3667 14.34218190432360","cat":"communications"},{"name":"IRIDIUM 150","l1":"1 43257U 18030J   26183.70652116  .00000206  00000+0  66650-4 0  9995","l2":"2 43257  86.3967 283.9772 0002195  96.2290 263.9156 14.34218323432388","cat":"communications"},{"name":"IRIDIUM 143","l1":"1 43258U 18030K   26183.68748993  .00000073  00000+0  19069-4 0  9996","l2":"2 43258  86.3968 284.0782 0002259  98.4037 261.7415 14.34216894432315","cat":"communications"},{"name":"IRIDIUM 161","l1":"1 43478U 18047C   26183.69910243  .00000378  00000+0  10641-3 0  9992","l2":"2 43478  86.4475  81.9854 0002440  79.9577 280.1899 14.43281100427375","cat":"communications"},{"name":"IRIDIUM 152","l1":"1 43479U 18047D   26183.66021850 -.00000251  00000+0 -96560-4 0  9994","l2":"2 43479  86.3951  81.8624 0002136  81.5878 278.5560 14.34214940424701","cat":"communications"},{"name":"IRIDIUM 147","l1":"1 43480U 18047E   26183.45724270  .00000277  00000+0  91735-4 0  9994","l2":"2 43480  86.3952  81.9532 0002214  87.4612 272.6837 14.34220530424671","cat":"communications"},{"name":"IRIDIUM 110","l1":"1 43481U 18047F   26183.46359123  .00000058  00000+0  13566-4 0  9990","l2":"2 43481  86.3953  82.0428 0002371  76.6533 283.4927 14.34217856424661","cat":"communications"},{"name":"IRIDIUM 162","l1":"1 43482U 18047G   26183.69279779  .00000365  00000+0  10251-3 0  9992","l2":"2 43482  86.4472  81.8786 0002218  83.2263 276.9190 14.43282750427361","cat":"communications"},{"name":"IRIDIUM 160","l1":"1 43569U 18061A   26183.61873230  .00000040  00000+0  71013-5 0  9993","l2":"2 43569  86.3948  50.3439 0002250  85.9941 274.1512 14.34217839415583","cat":"communications"},{"name":"IRIDIUM 166","l1":"1 43570U 18061B   26183.57433420  .00000184  00000+0  58580-4 0  9995","l2":"2 43570  86.3947  50.3129 0002225  88.8527 271.2924 14.34218192415605","cat":"communications"},{"name":"IRIDIUM 158","l1":"1 43571U 18061C   26183.61238961  .00000015  00000+0 -16719-5 0  9997","l2":"2 43571  86.3944  50.3065 0002002  84.1573 275.9851 14.34217469415577","cat":"communications"},{"name":"IRIDIUM 165","l1":"1 43572U 18061D   26183.56799145  .00000063  00000+0  15315-4 0  9990","l2":"2 43572  86.3948  50.3720 0002164  90.0240 270.1203 14.34217863415594","cat":"communications"},{"name":"IRIDIUM 155","l1":"1 43573U 18061E   26183.59970344  .00000146  00000+0  45219-4 0  9994","l2":"2 43573  86.3943  50.2269 0002047  86.3098 273.8332 14.34218555415565","cat":"communications"},{"name":"IRIDIUM 154","l1":"1 43574U 18061F   26183.65044446  .00000075  00000+0  19591-4 0  9992","l2":"2 43574  86.3949  50.3402 0002243  89.5471 270.5982 14.34218200415629","cat":"communications"},{"name":"IRIDIUM 163","l1":"1 43575U 18061G   26183.63141727  .00000016  00000+0 -13049-5 0  9990","l2":"2 43575  86.3944  50.2626 0002069  83.9398 276.2033 14.34217640415597","cat":"communications"}]